OBJECT_NAME,OBJECT_ID,EPOCH,MEAN_MOTION,ECCENTRICITY,INCLINATION,RA_OF_ASC_NODE,ARG_OF_PERICENTER,MEAN_ANOMALY,EPHEMERIS_TYPE,CLASSIFICATION_TYPE,NORAD_CAT_ID,ELEMENT_SET_NO,REV_AT_EPOCH,BSTAR,MEAN_MOTION_DOT,MEAN_MOTION_DDOT
STARLINK-37448,2026-161P,2026-07-22T13:06:48.882240,15.90124228,.00017014,53.1599,284.6465,83.8748,276.2472,0,U,100041,999,131,-.26304495E-2,-.74918E-2,0
STARLINK-38002,2026-161Q,2026-07-22T13:05:54.127968,15.90252748,.00016283,53.1606,284.6411,98.1460,261.9752,0,U,100042,999,131,-.26478971E-2,-.758336E-2,0
STARLINK-38023,2026-161R,2026-07-22T13:15:19.040544,15.88769977,.00015134,53.1605,284.6866,102.9182,257.2013,0,U,100043,999,131,-.28213865E-2,-.749897E-2,0
STARLINK-37984,2026-161S,2026-07-22T13:04:53.664384,15.90331602,.00013692,53.1600,284.6366,91.9756,268.1427,0,U,100044,999,131,-.2641427E-2,-.759378E-2,0
STARLINK-37808,2026-161T,2026-07-22T13:04:05.058336,15.90471156,.0001486,53.1603,284.6332,85.5203,274.5994,0,U,100045,999,131,-.26051587E-2,-.754779E-2,0
STARLINK-37807,2026-161U,2026-07-22T13:03:18.808416,15.90578556,.00016904,53.1602,284.6281,77.6726,282.4490,0,U,100046,999,131,-.20245625E-2,-.642502E-2,.13667782E-3
STARLINK-37756,2026-161V,2026-07-22T13:02:24.150048,15.90730330,.00014145,53.1599,284.6239,72.4354,287.6827,0,U,100047,999,131,-.26098705E-2,-.832821E-2,.21729811E-3
STARLINK-37752,2026-161W,2026-07-22T13:01:36.178176,15.90855224,.00018385,53.1599,284.6208,41.2557,318.8608,0,U,100048,999,131,-.25586803E-2,-.821877E-2,.21244905E-3
STARLINK-37848,2026-161X,2026-07-22T13:00:47.577312,15.90989550,.00017525,53.1599,284.6173,56.5320,303.5874,0,U,100049,999,131,-.24928325E-2,-.806387E-2,.20558128E-3
STARLINK-37826,2026-161Y,2026-07-22T12:59:58.706016,15.91129457,.00015098,53.1598,284.6125,69.0121,291.1068,0,U,100050,999,131,-.24539624E-2,-.799572E-2,.20274845E-3
STARLINK-37677,2026-161Z,2026-07-22T12:59:10.886208,15.91277745,.00013812,53.1598,284.6090,61.3775,298.7391,0,U,100051,999,131,-.24215093E-2,-.79507E-2,.20099405E-3
STARLINK-37797,2026-161AA,2026-07-22T12:58:27.874560,15.91398379,.00017246,53.1599,284.6057,67.8661,292.2549,0,U,100052,999,131,-.24707628E-2,-.816156E-2,.21090476E-3
STARLINK-37796,2026-161AB,2026-07-22T11:27:20.422944,15.92482572,.00020177,53.1484,284.9239,207.6206,152.4714,0,U,100053,999,130,.15042223E-2,.5205E-2,.11755511E-3
STARLINK-37505,2026-161AC,2026-07-22T11:25:30.887616,15.93240042,.00025061,53.1613,284.9143,12.8411,347.2681,0,U,100054,999,130,.13233284E-2,.476341E-2,.10043001E-3
STARLINK-37605,2026-161AD,2026-07-22T11:25:49.617408,15.91766726,.00047275,53.1604,284.9158,7.9582,352.1520,0,U,100055,999,130,.14524682E-2,.484492E-2,.10187938E-3
STARLINK-37650,2026-161AE,2026-07-22T14:25:43.844160,15.91688489,.00018444,53.1595,284.2717,36.8212,323.2942,0,U,100056,999,132,-.24570055E-2,-.82382E-2,.21507975E-3
SOYUZ-MS 29,2026-162A,2026-07-22T03:40:37.502112,15.49090344,.00068832,51.6313,127.0562,324.3803,35.6725,0,U,100057,999,57691,.16818085E-3,.8859E-4,0
