{"epoch":1784762836,"count":18316,"objects":[{"id":"100041","name":"STARLINK-37448","type":"PAYLOAD","l1":"1 A0041U 26161P   26203.54639910 -.00749180  00000-0 -26304-2 0  9999","l2":"2 A0041  53.1599 284.6465 0001701  83.8748 276.2472 15.90124228  1310"},{"id":"100042","name":"STARLINK-38002","type":"PAYLOAD","l1":"1 A0042U 26161Q   26203.54576537 -.00758336  00000-0 -26479-2 0  9991","l2":"2 A0042  53.1606 284.6411 0001628  98.1460 261.9752 15.90252748  1310"},{"id":"100043","name":"STARLINK-38023","type":"PAYLOAD","l1":"1 A0043U 26161R   26203.55230371 -.00749897  00000-0 -28214-2 0  9997","l2":"2 A0043  53.1605 284.6866 0001513 102.9182 257.2013 15.88769977  1314"},{"id":"100044","name":"STARLINK-37984","type":"PAYLOAD","l1":"1 A0044U 26161S   26203.54506556 -.00759378  00000-0 -26414-2 0  9993","l2":"2 A0044  53.1600 284.6366 0001369  91.9756 268.1427 15.90331602  1311"},{"id":"100045","name":"STARLINK-37808","type":"PAYLOAD","l1":"1 A0045U 26161T   26203.54450299 -.00754779  00000-0 -26052-2 0  9994","l2":"2 A0045  53.1603 284.6332 0001486  85.5203 274.5994 15.90471156  1313"},{"id":"100046","name":"STARLINK-37807","type":"PAYLOAD","l1":"1 A0046U 26161U   26203.54396769 -.00642502  13668-3 -20246-2 0  9992","l2":"2 A0046  53.1602 284.6281 0001690  77.6726 282.4490 15.90578556  1316"},{"id":"100047","name":"STARLINK-37756","type":"PAYLOAD","l1":"1 A0047U 26161V   26203.54333507 -.00832821  21730-3 -26099-2 0  9990","l2":"2 A0047  53.1599 284.6239 0001415  72.4354 287.6827 15.90730330  1311"},{"id":"100048","name":"STARLINK-37752","type":"PAYLOAD","l1":"1 A0048U 26161W   26203.54277984 -.00821877  21245-3 -25587-2 0  9998","l2":"2 A0048  53.1599 284.6208 0001839  41.2557 318.8608 15.90855224  1311"},{"id":"100049","name":"STARLINK-37848","type":"PAYLOAD","l1":"1 A0049U 26161X   26203.54221733 -.00806387  20558-3 -24928-2 0  9993","l2":"2 A0049  53.1599 284.6173 0001753  56.5320 303.5874 15.90989550  1311"},{"id":"100050","name":"STARLINK-37826","type":"PAYLOAD","l1":"1 A0050U 26161Y   26203.54165169 -.00799572  20275-3 -24540-2 0  9998","l2":"2 A0050  53.1598 284.6125 0001510  69.0121 291.1068 15.91129457  1318"},{"id":"100051","name":"STARLINK-37677","type":"PAYLOAD","l1":"1 A0051U 26161Z   26203.54109822 -.00795070  20099-3 -24215-2 0  9995","l2":"2 A0051  53.1598 284.6090 0001381  61.3775 298.7391 15.91277745  1312"},{"id":"100052","name":"STARLINK-37797","type":"PAYLOAD","l1":"1 A0052U 26161AA  26203.54060040 -.00816156  21090-3 -24708-2 0  9992","l2":"2 A0052  53.1599 284.6057 0001725  67.8661 292.2549 15.91398379  1315"},{"id":"100053","name":"STARLINK-37796","type":"PAYLOAD","l1":"1 A0053U 26161AB  26203.47731971  .00520500  11756-3  15042-2 0  9995","l2":"2 A0053  53.1484 284.9239 0002018 207.6206 152.4714 15.92482572  1309"},{"id":"100054","name":"STARLINK-37505","type":"PAYLOAD","l1":"1 A0054U 26161AC  26203.47605194  .00476341  10043-3  13233-2 0  9994","l2":"2 A0054  53.1613 284.9143 0002506  12.8411 347.2681 15.93240042  1306"},{"id":"100055","name":"STARLINK-37605","type":"PAYLOAD","l1":"1 A0055U 26161AD  26203.47626872  .00484492  10188-3  14525-2 0  9992","l2":"2 A0055  53.1604 284.9158 0004727   7.9582 352.1520 15.91766726  1301"},{"id":"100056","name":"STARLINK-37650","type":"PAYLOAD","l1":"1 A0056U 26161AE  26203.60120190 -.00823820  21508-3 -24570-2 0  9993","l2":"2 A0056  53.1595 284.2717 0001844  36.8212 323.2942 15.91688489  1321"},{"id":"100057","name":"SOYUZ MS-29","type":"PAYLOAD","l1":"1 A0057U 26162A   26203.15321183  .00008859  00000-0  16818-3 0  9993","l2":"2 A0057  51.6313 127.0562 0006883 324.3803  35.6725 15.49090344576919"}]}